OBJECT_NAME,OBJECT_ID,EPOCH,MEAN_MOTION,ECCENTRICITY,INCLINATION,RA_OF_ASC_NODE,ARG_OF_PERICENTER,MEAN_ANOMALY,EPHEMERIS_TYPE,CLASSIFICATION_TYPE,NORAD_CAT_ID,ELEMENT_SET_NO,REV_AT_EPOCH,BSTAR,MEAN_MOTION_DOT,MEAN_MOTION_DDOT
ONEWEB-0634,2023-043AF,2026-06-14T18:59:13.329600,13.15548307,.0002278,87.9002,259.7065,104.7315,255.4068,0,U,56075,999,15608,.31114E-3,.13E-5,0
ONEWEB-0635,2023-043AG,2026-06-14T18:52:21.080640,13.15550544,.0001942,87.9011,259.6697,92.6491,267.4861,0,U,56076,999,15611,.29788E-3,.125E-5,0
ONEWEB-0636,2023-043AH,2026-06-14T18:40:57.913248,13.15549820,.0001977,87.9006,259.6777,94.7405,265.3951,0,U,56077,999,15609,.28076E-3,.119E-5,0
ONEWEB-0637,2023-043AJ,2026-06-14T18:31:50.638368,13.15548859,.0002273,87.8998,259.6957,97.0028,263.1361,0,U,56078,999,15611,.41198E-5,.14E-6,0
ONEWEB-0647,2023-043AK,2026-06-14T18:25:00.188256,13.15548289,.000184,87.8999,259.7091,97.9694,262.1645,0,U,56079,999,15610,-.12007E-3,-.32E-6,0
ONEWEB-0651,2023-043AL,2026-06-14T20:07:40.441728,13.15549343,.0002101,87.8999,259.6885,94.4360,265.7010,0,U,56080,999,15731,.71785E-4,.4E-6,0
ONEWEB-0718,2023-043AM,2026-06-14T18:11:16.651968,13.15547170,.0002346,87.8998,259.6854,110.6169,249.5213,0,U,56081,999,15611,-.69616E-3,-.249E-5,0
ONEWEB-0561,2023-068A,2026-06-14T20:22:52.792896,13.20772672,.0001742,87.9193,274.9090,90.3522,269.7811,0,U,56710,999,14919,.19814E-3,.94E-6,0
ONEWEB-0668,2023-068B,2026-06-14T14:48:31.899168,13.16593477,.00026,87.9097,229.2828,100.6922,259.4502,0,U,56711,999,15144,.14749E-3,.69E-6,0
ONEWEB-0676,2023-068C,2026-06-14T13:10:28.663968,13.16592580,.0002053,87.9101,229.3023,88.7761,271.3605,0,U,56712,999,15135,.83879E-4,.45E-6,0
ONEWEB-0677,2023-068D,2026-06-14T20:05:53.286720,13.20770079,.0002277,87.9192,274.9028,93.0699,267.0695,0,U,56713,999,14949,-.30394E-3,-.111E-5,0
ONEWEB-0678,2023-068E,2026-06-14T15:36:08.705664,13.15547319,.0001668,87.9011,259.6983,100.8314,259.3004,0,U,56714,999,14895,-.22665E-3,-.73E-6,0
ONEWEB-0679,2023-068F,2026-06-14T15:50:04.964352,13.16594953,.0002592,87.9100,229.2718,91.9431,268.1997,0,U,56715,999,15139,-.87568E-4,-.21E-6,0
ONEWEB-0680,2023-068G,2026-06-14T14:20:58.972128,13.21827852,.0002603,87.9262,244.4859,98.9878,261.1551,0,U,56716,999,15075,-.21995E-3,-.78E-6,0
ONEWEB-0681,2023-068H,2026-06-14T15:42:07.886880,13.21826973,.0002088,87.9260,244.4761,72.2307,287.9055,0,U,56717,999,15075,-.27776E-4,.2E-7,0
ONEWEB-0682,2023-068J,2026-06-14T19:49:25.415040,13.15548646,.0002552,87.9007,259.6641,99.8065,260.3354,0,U,56718,999,14914,-.36401E-3,-.124E-5,0
ONEWEB-0683,2023-068K,2026-06-14T18:34:07.661856,13.15548585,.0002238,87.9010,259.6742,103.6015,256.5365,0,U,56719,999,14910,.25382E-3,.108E-5,0
ONEWEB-0684,2023-068L,2026-06-14T18:45:31.913568,13.15547657,.0001391,87.9004,259.6626,142.3468,217.7760,0,U,56720,999,14893,.80784E-3,.317E-5,0
ONEWEB-0686,2023-068M,2026-06-14T13:03:39.390624,13.16594732,.000218,87.9090,229.3183,106.7544,253.3826,0,U,56721,999,15136,.23625E-3,.103E-5,0
ONEWEB-0694,2023-068N,2026-06-14T13:12:46.357056,13.16594253,.0002522,87.9111,229.2810,99.7710,260.3705,0,U,56722,999,15142,.51797E-4,.33E-6,0
ONEWEB-0696,2023-068P,2026-06-14T19:33:25.347744,13.15546675,.0001498,87.9003,259.6946,100.9515,259.1784,0,U,56723,999,14905,-.32225E-3,-.108E-5,0
ONEWEB-0703,2023-068Q,2026-06-14T19:47:08.272320,13.15547924,.0001204,87.9001,259.6739,85.8214,274.3053,0,U,56724,999,14894,-.4759E-3,-.166E-5,0
ONEWEB-0721,2023-068R,2026-06-14T19:04:01.263648,13.22468955,.0001912,86.6766,86.2799,77.8930,282.2417,0,U,56725,999,15762,.10055E-3,.56E-6,0
ONEWEB-0015,2024-188A,2026-06-14T15:20:15.192672,13.11418935,.0002233,87.8889,21.6006,74.6879,285.4496,0,U,61594,999,8412,-.10718E-2,-.367E-5,0
ONEWEB-0687,2024-188B,2026-06-14T19:13:11.052768,13.17649000,.0002354,87.9129,6.3514,87.7531,272.3870,0,U,61595,999,8558,.31735E-3,.136E-5,0
ONEWEB-0688,2024-188C,2026-06-14T19:54:29.788416,13.17648774,.0002768,87.9128,6.3457,66.5992,293.5431,0,U,61596,999,8558,.23878E-3,.106E-5,0
ONEWEB-0689,2024-188D,2026-06-14T19:48:49.857120,13.11417939,.0002043,87.8903,21.5210,91.6098,268.5263,0,U,61597,999,8414,.14047E-2,.511E-5,0
ONEWEB-0690,2024-188E,2026-06-14T20:03:28.984896,13.11414457,.0001281,87.8896,21.5308,70.8722,289.2545,0,U,61598,999,8432,.44047E-3,.169E-5,0
ONEWEB-0691,2024-188F,2026-06-14T19:56:10.364064,13.11415509,.0002153,87.8906,21.4402,79.7768,280.3603,0,U,61599,999,8417,.97544E-3,.358E-5,0
ONEWEB-0692,2024-188G,2026-06-14T20:25:26.500224,13.11414940,.0001808,87.8886,21.5498,111.2552,248.8769,0,U,61600,999,8416,-.11684E-2,-.401E-5,0
ONEWEB-0693,2024-188H,2026-06-14T20:11:30.067008,13.17647881,.0001369,87.9124,6.3634,64.5745,295.5528,0,U,61601,999,8557,.91475E-4,.48E-6,0
