ONEWEB-0634             
1 56075U 23043AF  26165.79112650  .00000130  00000+0  31114-3 0  9992
2 56075  87.9002 259.7065 0002278 104.7315 255.4068 13.15548307156082
ONEWEB-0635             
1 56076U 23043AG  26165.78635510  .00000125  00000+0  29788-3 0  9995
2 56076  87.9011 259.6697 0001942  92.6491 267.4861 13.15550544156114
ONEWEB-0636             
1 56077U 23043AH  26165.77844807  .00000119  00000+0  28076-3 0  9998
2 56077  87.9006 259.6777 0001977  94.7405 265.3951 13.15549820156093
ONEWEB-0637             
1 56078U 23043AJ  26165.77211387  .00000014  00000+0  41198-5 0  9996
2 56078  87.8998 259.6957 0002273  97.0028 263.1361 13.15548859156115
ONEWEB-0647             
1 56079U 23043AK  26165.76736329 -.00000032  00000+0 -12007-3 0  9991
2 56079  87.8999 259.7091 0001840  97.9694 262.1645 13.15548289156104
ONEWEB-0651             
1 56080U 23043AL  26165.83866252  .00000040  00000+0  71785-4 0  9996
2 56080  87.8999 259.6885 0002101  94.4360 265.7010 13.15549343157310
ONEWEB-0718             
1 56081U 23043AM  26165.75783162 -.00000249  00000+0 -69616-3 0  9998
2 56081  87.8998 259.6854 0002346 110.6169 249.5213 13.15547170156113
ONEWEB-0561             
1 56710U 23068A   26165.84922214  .00000094  00000+0  19814-3 0  9998
2 56710  87.9193 274.9090 0001742  90.3522 269.7811 13.20772672149199
ONEWEB-0668             
1 56711U 23068B   26165.61703587  .00000069  00000+0  14749-3 0  9998
2 56711  87.9097 229.2828 0002600 100.6922 259.4502 13.16593477151441
ONEWEB-0676             
1 56712U 23068C   26165.54894287  .00000045  00000+0  83879-4 0  9994
2 56712  87.9101 229.3023 0002053  88.7761 271.3605 13.16592580151356
ONEWEB-0677             
1 56713U 23068D   26165.83742230 -.00000111  00000+0 -30394-3 0  9996
2 56713  87.9192 274.9028 0002277  93.0699 267.0695 13.20770079149494
ONEWEB-0678             
1 56714U 23068E   26165.65010076 -.00000073  00000+0 -22665-3 0  9992
2 56714  87.9011 259.6983 0001668 100.8314 259.3004 13.15547319148950
ONEWEB-0679             
1 56715U 23068F   26165.65977968 -.00000021  00000+0 -87568-4 0  9992
2 56715  87.9100 229.2718 0002592  91.9431 268.1997 13.16594953151394
ONEWEB-0680             
1 56716U 23068G   26165.59790477 -.00000078  00000+0 -21995-3 0  9997
2 56716  87.9262 244.4859 0002603  98.9878 261.1551 13.21827852150755
ONEWEB-0681             
1 56717U 23068H   26165.65425795  .00000002  00000+0 -27776-4 0  9993
2 56717  87.9260 244.4761 0002088  72.2307 287.9055 13.21826973150753
ONEWEB-0682             
1 56718U 23068J   26165.82598860 -.00000124  00000+0 -36401-3 0  9997
2 56718  87.9007 259.6641 0002552  99.8065 260.3354 13.15548646149149
ONEWEB-0683             
1 56719U 23068K   26165.77369979  .00000108  00000+0  25382-3 0  9995
2 56719  87.9010 259.6742 0002238 103.6015 256.5365 13.15548585149103
ONEWEB-0684             
1 56720U 23068L   26165.78161937  .00000317  00000+0  80784-3 0  9991
2 56720  87.9004 259.6626 0001391 142.3468 217.7760 13.15547657148937
ONEWEB-0686             
1 56721U 23068M   26165.54420591  .00000103  00000+0  23625-3 0  9994
2 56721  87.9090 229.3183 0002180 106.7544 253.3826 13.16594732151368
ONEWEB-0694             
1 56722U 23068N   26165.55053654  .00000033  00000+0  51797-4 0  9992
2 56722  87.9111 229.2810 0002522  99.7710 260.3705 13.16594253151424
ONEWEB-0696             
1 56723U 23068P   26165.81487671 -.00000108  00000+0 -32225-3 0  9991
2 56723  87.9003 259.6946 0001498 100.9515 259.1784 13.15546675149054
ONEWEB-0703             
1 56724U 23068Q   26165.82440130 -.00000166  00000+0 -47590-3 0  9997
2 56724  87.9001 259.6739 0001204  85.8214 274.3053 13.15547924148948
ONEWEB-0721             
1 56725U 23068R   26165.79445907  .00000056  00000+0  10055-3 0  9993
2 56725  86.6766  86.2799 0001912  77.8930 282.2417 13.22468955157626
ONEWEB-0015             
1 61594U 24188A   26165.63906473 -.00000367  00000+0 -10718-2 0  9992
2 61594  87.8889  21.6006 0002233  74.6879 285.4496 13.11418935 84120
ONEWEB-0687             
1 61595U 24188B   26165.80082237  .00000136  00000+0  31735-3 0  9990
2 61595  87.9129   6.3514 0002354  87.7531 272.3870 13.17649000 85584
ONEWEB-0688             
1 61596U 24188C   26165.82951144  .00000106  00000+0  23878-3 0  9991
2 61596  87.9128   6.3457 0002768  66.5992 293.5431 13.17648774 85580
ONEWEB-0689             
1 61597U 24188D   26165.82557705  .00000511  00000+0  14047-2 0  9994
2 61597  87.8903  21.5210 0002043  91.6098 268.5263 13.11417939 84146
ONEWEB-0690             
1 61598U 24188E   26165.83575214  .00000169  00000+0  44047-3 0  9994
2 61598  87.8896  21.5308 0001281  70.8722 289.2545 13.11414457 84327
ONEWEB-0691             
1 61599U 24188F   26165.83067551  .00000358  00000+0  97544-3 0  9995
2 61599  87.8906  21.4402 0002153  79.7768 280.3603 13.11415509 84170
ONEWEB-0692             
1 61600U 24188G   26165.85100116 -.00000401  00000+0 -11684-2 0  9996
2 61600  87.8886  21.5498 0001808 111.2552 248.8769 13.11414940 84164
ONEWEB-0693             
1 61601U 24188H   26165.84132022  .00000048  00000+0  91475-4 0  9990
2 61601  87.9124   6.3634 0001369  64.5745 295.5528 13.17647881 85576
